{
"type": "FeatureCollection",
"name": "Lokasi_Petani",
"crs": { "type": "name", "properties": { "name": "urn:ogc:def:crs:OGC:1.3:CRS84" } },
"features": [
{ "type": "Feature", "properties": { "fid": 1, "Area": 1, "Jenis Tani": "Tani Sawah" }, "geometry": { "type": "Polygon", "coordinates": [ [ [ 119.876966792032803, -3.911760592883957 ], [ 119.877193638385279, -3.9118226477809 ], [ 119.877629037029536, -3.911665685385625 ], [ 119.878042482800936, -3.911537925274742 ], [ 119.878269329153412, -3.910771364200398 ], [ 119.878558375312195, -3.910497592218214 ], [ 119.878697410173402, -3.910278574568085 ], [ 119.878463246196659, -3.910136213064811 ], [ 119.878038823988788, -3.910687407468702 ], [ 119.877757095454299, -3.91111084133411 ], [ 119.877570496035347, -3.911344459926894 ], [ 119.877332673246443, -3.911526974407189 ], [ 119.876919227475057, -3.911632832787546 ], [ 119.876966792032803, -3.911760592883957 ] ] ] } },
{ "type": "Feature", "properties": { "fid": 2, "Area": 2, "Jenis Tani": "Tani Sawah" }, "geometry": { "type": "Polygon", "coordinates": [ [ [ 119.879090732478019, -3.90878514644097 ], [ 119.879383437448965, -3.908901956069576 ], [ 119.879862741838849, -3.908113490760734 ], [ 119.880089588191311, -3.907671803851757 ], [ 119.880495716338459, -3.906817631814279 ], [ 119.880290822858825, -3.906711772825987 ], [ 119.879917624020905, -3.907390730243129 ], [ 119.879774930347551, -3.907763061496643 ], [ 119.879090732478019, -3.90878514644097 ] ] ] } },
{ "type": "Feature", "properties": { "fid": 3, "Area": 3, "Jenis Tani": "Tani Sawah" }, "geometry": { "type": "Polygon", "coordinates": [ [ [ 119.879928600457319, -3.908120791368844 ], [ 119.880166423246195, -3.908259502910891 ], [ 119.880477422277821, -3.907708306910902 ], [ 119.880620115951118, -3.907122432619764 ], [ 119.880843303491474, -3.906793904800822 ], [ 119.881132349650258, -3.906224456276588 ], [ 119.880876232800702, -3.90613684877702 ], [ 119.880649386448226, -3.906618689911451 ], [ 119.880470104653497, -3.907031174905185 ], [ 119.880360340289442, -3.907275745557909 ], [ 119.880221305428236, -3.907571420430916 ], [ 119.879928600457319, -3.908120791368844 ] ] ] } },
{ "type": "Feature", "properties": { "fid": 4, "Area": 4, "Jenis Tani": "Tani Sawah" }, "geometry": { "type": "Polygon", "coordinates": [ [ [ 119.87997982382727, -3.906295637363252 ], [ 119.880590845454066, -3.906554809473936 ], [ 119.880854279927888, -3.906010912980362 ], [ 119.880956726667748, -3.905740789758575 ], [ 119.88069695100603, -3.905642231264111 ], [ 119.880462787029288, -3.906215330495809 ], [ 119.880199352555451, -3.906127722995287 ], [ 119.87997982382727, -3.906295637363252 ] ] ] } },
{ "type": "Feature", "properties": { "fid": 5, "Area": 5, "Jenis Tani": "Tani Sawah" }, "geometry": { "type": "Polygon", "coordinates": [ [ [ 119.881132422179931, -3.904178995195574 ], [ 119.881090273310718, -3.904437626507706 ], [ 119.881075638062185, -3.904846462255194 ], [ 119.881053685189372, -3.905485267711996 ], [ 119.881251261044738, -3.905576525594704 ], [ 119.881382978281664, -3.905167690202815 ], [ 119.881251261044738, -3.904915818299745 ], [ 119.881423799071257, -3.904260954859581 ], [ 119.881132422179931, -3.904178995195574 ] ] ] } },
{ "type": "Feature", "properties": { "fid": 6, "Area": 1, "Jenis Tani": "Tani Sayur" }, "geometry": { "type": "Polygon", "coordinates": [ [ [ 119.891750165291867, -3.902781399082761 ], [ 119.892126108236369, -3.902228374324088 ], [ 119.891972438127681, -3.901897106843772 ], [ 119.891769374055457, -3.901760219417067 ], [ 119.891569054092344, -3.901875204856998 ], [ 119.891316596056598, -3.902211947840537 ], [ 119.891154693620692, -3.902472033792339 ], [ 119.891750165291867, -3.902781399082761 ] ] ] } },
{ "type": "Feature", "properties": { "fid": 7, "Area": 2, "Jenis Tani": "Tani Sayur" }, "geometry": { "type": "Polygon", "coordinates": [ [ [ 119.893474837851215, -3.903735502822676 ], [ 119.893613415359937, -3.903494581464117 ], [ 119.894171841558531, -3.903787519925109 ], [ 119.894405090830617, -3.903851856863136 ], [ 119.894606782848314, -3.903479523876913 ], [ 119.895089746047049, -3.903547967452941 ], [ 119.895199510410421, -3.903734133951517 ], [ 119.895191278083161, -3.903980530724398 ], [ 119.894999190447308, -3.904092778119177 ], [ 119.894853752665853, -3.90436381444959 ], [ 119.894466833285037, -3.904215976462031 ], [ 119.893934476122752, -3.903958628791959 ], [ 119.893474837851215, -3.903735502822676 ] ] ] } },
{ "type": "Feature", "properties": { "fid": 8, "Area": 3, "Jenis Tani": "Tani Sayur" }, "geometry": { "type": "Polygon", "coordinates": [ [ [ 119.894340604267185, -3.903066124559085 ], [ 119.89473575597529, -3.903268717627687 ], [ 119.895701682372817, -3.903394653834886 ], [ 119.896080369426357, -3.9026554627836 ], [ 119.895915722881355, -3.902118864427697 ], [ 119.895784005645297, -3.9021133889325 ], [ 119.895388853937263, -3.902748546136973 ], [ 119.894883937865828, -3.902671889258474 ], [ 119.894719291320769, -3.903033271624437 ], [ 119.894411951103379, -3.902929237322901 ], [ 119.894340604267185, -3.903066124559085 ] ] ] } },
{ "type": "Feature", "properties": { "fid": 9, "Area": 4, "Jenis Tani": "Tani Sayur" }, "geometry": { "type": "Polygon", "coordinates": [ [ [ 119.895065049065352, -3.901954599556335 ], [ 119.894872961429471, -3.901894369095456 ], [ 119.895136395901503, -3.901532986239488 ], [ 119.895504106518771, -3.901478231247752 ], [ 119.89598158149937, -3.901626069717253 ], [ 119.896261480625896, -3.90174653067317 ], [ 119.896162692698894, -3.901954599556335 ], [ 119.897208198259847, -3.902321457724796 ], [ 119.897350891932192, -3.902179094872478 ], [ 119.897521026695401, -3.902326933218635 ], [ 119.897394797677535, -3.902551428435264 ], [ 119.895962372735752, -3.902042207491725 ], [ 119.895347692300945, -3.901790334652854 ], [ 119.895065049065352, -3.901954599556335 ] ] ] } },
{ "type": "Feature", "properties": { "fid": 10, "Area": 5, "Jenis Tani": "Tani Sayur" }, "geometry": { "type": "Polygon", "coordinates": [ [ [ 119.896231295425949, -3.903260504396125 ], [ 119.896132507498919, -3.903556180681687 ], [ 119.896555100297817, -3.903698543300566 ], [ 119.896653888224876, -3.903413818038672 ], [ 119.896231295425949, -3.903260504396125 ] ] ] } },
{ "type": "Feature", "properties": { "fid": 11, "Area": 6, "Jenis Tani": "Tani Sayur" }, "geometry": { "type": "Polygon", "coordinates": [ [ [ 119.895174813428667, -3.904180385831508 ], [ 119.895317507101055, -3.904251567091044 ], [ 119.895218719174039, -3.904492488232384 ], [ 119.895432759682564, -3.904571882684271 ], [ 119.895622103209362, -3.904100991342598 ], [ 119.89544648022796, -3.903991481690402 ], [ 119.895353180519109, -3.904128368753415 ], [ 119.895218719174039, -3.9040654007072 ], [ 119.895174813428667, -3.904180385831508 ] ] ] } },
{ "type": "Feature", "properties": { "fid": 12, "Area": 6, "Jenis Tani": "Tani Sawah" }, "geometry": { "type": "Polygon", "coordinates": [ [ [ 119.894669862455444, -3.907038036886453 ], [ 119.89448246135079, -3.907038036886453 ], [ 119.894374783368036, -3.90710827809169 ], [ 119.89433026266363, -3.907226035393155 ], [ 119.894156321306852, -3.907250826401882 ], [ 119.89411904815897, -3.907359287056458 ], [ 119.894197735915597, -3.907403704272852 ], [ 119.894185311532937, -3.907521461532848 ], [ 119.894148038385055, -3.907637152859901 ], [ 119.894350969967974, -3.907711525847437 ], [ 119.894698852681543, -3.907748712338733 ], [ 119.894852086733977, -3.907542120699562 ], [ 119.89469471122068, -3.907418165691637 ], [ 119.894669862455444, -3.907038036886453 ] ] ] } }
]
}
